[{"OBJECT_NAME":"HAWK-2B","OBJECT_ID":"2021-006CZ","EPOCH":"2026-03-09T16:13:51.664224","MEAN_MOTION":15.33301353,"ECCENTRICITY":0.00071021,"INCLINATION":97.2334,"RA_OF_ASC_NODE":114.114,"ARG_OF_PERICENTER":185.9063,"MEAN_ANOMALY":174.2098,"EPHEMERIS_TYPE":0,"CLASSIFICATION_TYPE":"U","NORAD_CAT_ID":47508,"ELEMENT_SET_NO":999,"REV_AT_EPOCH":28424,"BSTAR":0.00029650607,"MEAN_MOTION_DOT":9.474e-5,"MEAN_MOTION_DDOT":0},{"OBJECT_NAME":"STARLINK-32811","OBJECT_ID":"2025-034L","EPOCH":"2026-03-09T22:37:18.541344","MEAN_MOTION":15.3020159,"ECCENTRICITY":0.00010564,"INCLINATION":53.1573,"RA_OF_ASC_NODE":257.0827,"ARG_OF_PERICENTER":85.8199,"MEAN_ANOMALY":274.2922,"EPHEMERIS_TYPE":0,"CLASSIFICATION_TYPE":"U","NORAD_CAT_ID":63039,"ELEMENT_SET_NO":999,"REV_AT_EPOCH":5912,"BSTAR":0.0012116752,"MEAN_MOTION_DOT":0.00035701,"MEAN_MOTION_DDOT":0}]
